"{\n    \"CCSDS_OMM_VERS\": \"2.0\",\n    \"COMMENT\": \"GENERATED VIA SPACE-TRACK.ORG API\",\n    \"CREATION_DATE\": \"2025-08-27T02:36:38\",\n    \"ORIGINATOR\": \"18 SPCS\",\n    \"OBJECT_NAME\": \"BEIDOU 3M2\",\n    \"OBJECT_ID\": \"2017-069B\",\n    \"CENTER_NAME\": \"EARTH\",\n    \"REF_FRAME\": \"TEME\",\n    \"TIME_SYSTEM\": \"UTC\",\n    \"MEAN_ELEMENT_THEORY\": \"SGP4\",\n    \"EPOCH\": \"2025-08-26T06:47:32.534880\",\n    \"MEAN_MOTION\": \"1.8623099\",\n    \"ECCENTRICITY\": \"0.0006598\",\n    \"INCLINATION\": \"56.4296\",\n    \"RA_OF_ASC_NODE\": \"72.8525\",\n    \"ARG_OF_PERICENTER\": \"355.7597\",\n    \"MEAN_ANOMALY\": \"4.2975\",\n    \"EPHEMERIS_TYPE\": \"0\",\n    \"CLASSIFICATION_TYPE\": \"U\",\n    \"NORAD_CAT_ID\": \"43002\",\n    \"ELEMENT_SET_NO\": \"999\",\n    \"REV_AT_EPOCH\": \"5310\",\n    \"BSTAR\": \"0\",\n    \"MEAN_MOTION_DOT\": \"-0.00000034\",\n    \"MEAN_MOTION_DDOT\": \"0\",\n    \"TLE_LINE0\": \"0 BEIDOU 3M2\",\n    \"TLE_LINE1\": \"1 43002U 17069B   25238.28301545 -.00000034  00000-0  00000+0 0  9997\",\n    \"TLE_LINE2\": \"2 43002  56.4296  72.8525 0006598 355.7597   4.2975  1.86230990 53105\",\n    \"SEMIMAJOR_AXIS\": \"27906.190\",\n    \"PERIOD\": \"773.233\",\n    \"APOAPSIS\": \"21546.467\",\n    \"PERIAPSIS\": \"21509.642\",\n    \"OBJECT_TYPE\": \"PAYLOAD\",\n    \"DECAYED\": \"0\"\n}"